NORAD_CAT_ID,OBJECT_NAME,OBJECT_TYPE,EPOCH,MEAN_MOTION,ECCENTRICITY,INCLINATION,RA_OF_ASC_NODE,ARG_OF_PERICENTER,MEAN_ANOMALY,BSTAR,MEAN_MOTION_DOT,MEAN_MOTION_DDOT,TLE_LINE0,TLE_LINE1,TLE_LINE2,SEMIMAJOR_AXIS,PERIOD,APOGEE,PERIGEE,DECAYED
52665.0,STARLINK-4064,PAYLOAD,2023-09-10 09:31:51,15.08842613,0.0001413,53.2163,285.0738,87.0982,273.0171,8.6664e-05,1.092e-05,0.0,0 STARLINK-4064,1 52665U 22053K   23253.39711846  .00001092  00000-0  86664-4 0  9996,2 52665  53.2163 285.0738 0001413  87.0982 273.0171 15.08842613 73472,6917.872,95.437,540.715,538.76,0.0
52665.0,STARLINK-4064,PAYLOAD,2023-09-11 09:22:38,15.08837708,0.0001401,53.2162,280.6127,88.1361,271.9792,4.8127e-05,4.78e-06,0.0,0 STARLINK-4064,1 52665U 22053K   23254.39072536  .00000478  00000-0  48127-4 0  9992,2 52665  53.2162 280.6127 0001401  88.1361 271.9792 15.08837708 73626,6917.887,95.438,540.722,538.783,0.0
52665.0,STARLINK-4064,PAYLOAD,2023-09-12 09:13:24,15.08849162,0.0001452,53.2164,276.1521,91.2764,268.8395,0.00011424,1.531e-05,0.0,0 STARLINK-4064,1 52665U 22053K   23255.38431672  .00001531  00000-0  11424-3 0  9992,2 52665  53.2164 276.1521 0001452  91.2764 268.8395 15.08849162 73771,6917.852,95.437,540.722,538.713,0.0
52665.0,STARLINK-4064,PAYLOAD,2023-09-13 07:28:48,15.08847244,0.0001563,53.217,271.988,80.5926,279.5243,0.00012778,1.747e-05,0.0,0 STARLINK-4064,1 52665U 22053K   23256.31167792  .00001747  00000-0  12778-3 0  9997,2 52665  53.2170 271.9880 0001563  80.5926 279.5243 15.08847244 73919,6917.858,95.437,540.805,538.642,0.0
52665.0,STARLINK-4064,PAYLOAD,2023-09-13 10:39:34,15.08850008,0.0001483,53.2168,271.3929,87.2606,272.8556,0.00014488,2.019e-05,0.0,0 STARLINK-4064,1 52665U 22053K   23256.44415466  .00002019  00000-0  14488-3 0  9998,2 52665  53.2168 271.3929 0001483  87.2606 272.8556 15.08850008 73931,6917.85,95.437,540.741,538.689,0.0
52665.0,STARLINK-4064,PAYLOAD,2023-09-13 18:36:31,15.08836407,0.0001843,53.2182,269.8984,127.434,232.682,2.1719e-05,5.8e-07,0.0,0 STARLINK-4064,1 52665U 22053K   23256.77536410  .00000058  00000-0  21719-4 0  9994,2 52665  53.2182 269.8984 0001843 127.4340 232.6820 15.08836407 73982,6917.891,95.438,541.031,538.481,0.0
52665.0,STARLINK-4064,PAYLOAD,2023-09-14 00:58:04,15.08835273,0.0001862,53.2167,268.7192,78.3351,281.785,-7.0505e-06,-4e-06,0.0,0 STARLINK-4064,1 52665U 22053K   23257.04033000 -.00000400  00000-0 -70505-5 0  9993,2 52665  53.2167 268.7192 0001862  78.3351 281.7850 15.08835273 74025,6917.895,95.438,541.048,538.472,0.0
52665.0,STARLINK-4064,PAYLOAD,2023-09-14 07:19:37,15.08832867,0.0001681,53.2167,267.53,80.4374,279.6809,-4.7513e-05,-1.044e-05,0.0,0 STARLINK-4064,1 52665U 22053K   23257.30529310 -.00001044  00000-0 -47513-4 0  9993,2 52665  53.2167 267.5300 0001681  80.4374 279.6809 15.08832867 74061,6917.902,95.438,540.93,538.604,0.0
52665.0,STARLINK-4064,PAYLOAD,2023-09-15 07:10:23,15.08853041,0.0001551,53.2176,263.0661,103.4217,256.6948,3.9578e-05,3.42e-06,0.0,0 STARLINK-4064,1 52665U 22053K   23258.29887894  .00000342  00000-0  39578-4 0  9996,2 52665  53.2176 263.0661 0001551 103.4217 256.6948 15.08853041 74213,6917.841,95.437,540.778,538.633,0.0
52665.0,STARLINK-4064,PAYLOAD,2023-09-16 00:39:38,15.08837758,0.0001625,53.2157,259.7971,90.4698,269.648,0.00018775,2.701e-05,0.0,0 STARLINK-4064,1 52665U 22053K   23259.02752966  .00002701  00000-0  18775-3 0  9995,2 52665  53.2157 259.7971 0001625  90.4698 269.6480 15.08837758 74322,6917.887,95.438,540.876,538.628,0.0
52665.0,STARLINK-4064,PAYLOAD,2023-09-16 08:36:33,15.08845544,0.0001632,53.2159,258.3113,89.3497,270.7683,0.00026338,3.907e-05,0.0,0 STARLINK-4064,1 52665U 22053K   23259.35872671  .00003907  00000-0  26338-3 0  9990,2 52665  53.2159 258.3113 0001632  89.3497 270.7683 15.08845544 74374,6917.863,95.437,540.857,538.599,0.0
52665.0,STARLINK-4064,PAYLOAD,2023-09-17 05:16:34,15.08846714,0.0001701,53.2163,254.4468,92.156,267.9627,-9.6993e-05,-1.832e-05,0.0,0 STARLINK-4064,1 52665U 22053K   23260.21984512 -.00001832  00000-0 -96993-4 0  9997,2 52665  53.2163 254.4468 0001701  92.1560 267.9627 15.08846714 74500,6917.86,95.437,540.902,538.548,0.0
52665.0,STARLINK-4064,PAYLOAD,2023-09-18 08:18:08,15.08842892,0.0001637,53.2173,249.3916,93.6255,266.4925,4.7024e-05,4.6e-06,0.0,0 STARLINK-4064,1 52665U 22053K   23261.34592968  .00000460  00000-0  47024-4 0  9997,2 52665  53.2173 249.3916 0001637  93.6255 266.4925 15.08842892 74673,6917.872,95.437,540.869,538.604,0.0
52665.0,STARLINK-4064,PAYLOAD,2023-09-18 11:28:54,15.08847308,0.0001611,53.2171,248.7956,91.9041,268.2136,8.0626e-05,9.96e-06,0.0,0 STARLINK-4064,1 52665U 22053K   23261.47840568  .00000996  00000-0  80626-4 0  9992,2 52665  53.2171 248.7956 0001611  91.9041 268.2136 15.08847308 74697,6917.858,95.437,540.838,538.609,0.0
52665.0,STARLINK-4064,PAYLOAD,2023-09-18 16:15:03,15.088437,0.0001599,53.2171,247.901,84.6101,275.5074,4.9504e-05,5e-06,0.0,0 STARLINK-4064,1 52665U 22053K   23261.67712840  .00000500  00000-0  49504-4 0  9996,2 52665  53.2171 247.9010 0001599  84.6101 275.5074 15.08843700 74728,6917.869,95.437,540.84,538.628,0.0
52665.0,STARLINK-4064,PAYLOAD,2023-09-19 16:05:51,15.08840023,0.00017,53.2174,243.4402,83.3392,276.7794,7.1866e-05,8.56e-06,0.0,0 STARLINK-4064,1 52665U 22053K   23262.67072962  .00000856  00000-0  71866-4 0  9991,2 52665  53.2174 243.4402 0001700  83.3392 276.7794 15.08840023 74872,6917.88,95.438,540.921,538.569,0.0
52665.0,STARLINK-4064,PAYLOAD,2023-09-20 06:24:19,15.08837345,0.0001665,53.2167,240.7661,81.3177,278.8004,2.4371e-05,1e-06,0.0,0 STARLINK-4064,1 52665U 22053K   23263.26689301  .00000100  00000-0  24371-4 0  9999,2 52665  53.2167 240.7661 0001665  81.3177 278.8004 15.08837345 74960,6917.889,95.438,540.905,538.602,0.0
52665.0,STARLINK-4064,PAYLOAD,2023-09-20 15:56:38,15.08840497,0.0001707,53.217,238.9825,77.6738,282.4445,2.732e-06,-2.45e-06,0.0,0 STARLINK-4064,1 52665U 22053K   23263.66433502 -.00000245  00000-0  27320-5 0  9992,2 52665  53.2170 238.9825 0001707  77.6738 282.4445 15.08840497 75023,6917.879,95.438,540.925,538.563,0.0
52665.0,STARLINK-4064,PAYLOAD,2023-09-21 07:50:29,15.08841804,0.000157,53.2169,236.0073,86.0316,274.0856,-7.1269e-06,-4.01e-06,0.0,0 STARLINK-4064,1 52665U 22053K   23264.32673592 -.00000401  00000-0 -71269-5 0  9997,2 52665  53.2169 236.0073 0001570  86.0316 274.0856 15.08841804 75126,6917.875,95.437,540.826,538.654,0.0
52665.0,STARLINK-4064,PAYLOAD,2023-09-21 22:08:58,15.08830864,0.0001264,53.2169,233.3296,91.435,268.6787,0.00016283,2.304e-05,0.0,0 STARLINK-4064,1 52665U 22053K   23264.92289899  .00002304  00000-0  16283-3 0  9991,2 52665  53.2169 233.3296 0001264  91.4350 268.6787 15.08830864 75217,6917.908,95.438,540.648,538.899,0.0
52665.0,STARLINK-4064,PAYLOAD,2023-09-22 02:55:07,15.08839797,0.0001497,53.2161,232.439,86.8506,273.2657,0.00013242,1.82e-05,0.0,0 STARLINK-4064,1 52665U 22053K   23265.12161562  .00001820  00000-0  13242-3 0  9994,2 52665  53.2161 232.4390 0001497  86.8506 273.2657 15.08839797 75248,6917.881,95.438,540.782,538.71,0.0
52665.0,STARLINK-4064,PAYLOAD,2023-09-22 07:41:16,15.08844622,0.0001526,53.2164,231.5462,93.2141,266.9025,0.0001519,2.131e-05,0.0,0 STARLINK-4064,1 52665U 22053K   23265.32033272  .00002131  00000-0  15190-3 0  9992,2 52665  53.2164 231.5462 0001526  93.2141 266.9025 15.08844622 75275,6917.866,95.437,540.787,538.676,0.0
52665.0,STARLINK-4064,PAYLOAD,2023-09-23 07:32:03,15.0884948,0.0001442,53.2169,227.0838,94.6738,265.4419,0.00018578,2.671e-05,0.0,0 STARLINK-4064,1 52665U 22053K   23266.31392843  .00002671  00000-0  18578-3 0  9996,2 52665  53.2169 227.0838 0001442  94.6738 265.4419 15.08849480 75426,6917.851,95.437,540.714,538.719,0.0
52665.0,STARLINK-4064,PAYLOAD,2023-09-24 02:36:42,15.08839274,0.0001413,53.2166,223.5176,87.4632,272.6522,7.537e-05,9.12e-06,0.0,0 STARLINK-4064,1 52665U 22053K   23267.10881950  .00000912  00000-0  75370-4 0  9996,2 52665  53.2166 223.5176 0001413  87.4632 272.6522 15.08839274 75548,6917.883,95.438,540.725,538.77,0.0
52665.0,STARLINK-4064,PAYLOAD,2023-09-24 05:47:27,15.08850561,0.0001191,53.216,222.9226,93.0463,267.0666,0.00011934,1.612e-05,0.0,0 STARLINK-4064,1 52665U 22053K   23267.24129025  .00001612  00000-0  11934-3 0  9992,2 52665  53.2160 222.9226 0001191  93.0463 267.0666 15.08850561 75560,6917.848,95.437,540.537,538.889,0.0
52665.0,STARLINK-4064,PAYLOAD,2023-09-24 21:41:19,15.08841475,0.0001289,53.2168,219.95,88.9063,271.2076,-5.8028e-05,-1.211e-05,0.0,0 STARLINK-4064,1 52665U 22053K   23267.90369447 -.00001211  00000-0 -58028-4 0  9992,2 52665  53.2168 219.9500 0001289  88.9063 271.2076 15.08841475 75663,6917.876,95.437,540.633,538.849,0.0
52665.0,STARLINK-4064,PAYLOAD,2023-09-25 02:27:28,15.08841785,0.0001359,53.2166,219.0577,94.9505,265.1642,-4.6686e-05,-1.031e-05,0.0,0 STARLINK-4064,1 52665U 22053K   23268.10241351 -.00001031  00000-0 -46686-4 0  9995,2 52665  53.2166 219.0577 0001359  94.9505 265.1642 15.08841785 75690,6917.875,95.437,540.68,538.8,0.0
52665.0,STARLINK-4064,PAYLOAD,2023-09-25 13:35:10,15.08848696,0.0001267,53.2166,216.977,88.1593,271.9544,7.8632e-05,9.64e-06,0.0,0 STARLINK-4064,1 52665U 22053K   23268.56608990  .00000964  00000-0  78632-4 0  9999,2 52665  53.2166 216.9770 0001267  88.1593 271.9544 15.08848696 75763,6917.854,95.437,540.595,538.842,0.0
52665.0,STARLINK-4064,PAYLOAD,2023-09-26 02:18:14,15.08858647,0.0001156,53.2158,214.5981,84.7184,275.394,0.00035346,5.345e-05,0.0,0 STARLINK-4064,1 52665U 22053K   23269.09600526  .00005345  00000-0  35346-3 0  9997,2 52665  53.2158 214.5981 0001156  84.7184 275.3940 15.08858647 75841,6917.823,95.436,540.488,538.889,0.0
52665.0,STARLINK-4064,PAYLOAD,2023-09-26 05:29:00,15.08870997,0.0001235,53.216,214.0039,91.4673,268.6461,0.00066758,0.00010362,0.0,0 STARLINK-4064,1 52665U 22053K   23269.22848087  .00010362  00000-0  66758-3 0  9994,2 52665  53.2160 214.0039 0001235  91.4673 268.6461 15.08870997 75866,6917.786,95.436,540.505,538.796,0.0
